LUCH-5V                 
1 39727U 14023A   26087.92006501 -.00000284  00000+0  00000+0 0  9997
2 39727   4.9363  70.5260 0002469 303.7488 238.0171  1.00272033 43556
NAVSTAR 70 (USA 251)    
1 39741U 14026A   26087.19137739 -.00000084  00000+0  00000+0 0  9991
2 39741  56.5350 334.6726 0039518 325.7427  34.0463  2.00566865 86919
COSMOS 2500 [GLONASS-M] 
1 40001U 14032A   26087.79643145 -.00000026  00000+0  00000+0 0  9994
2 40001  65.2782 316.4236 0005080 190.1719 169.8736  2.13105819 91744
NAVSTAR 71 (USA 256)    
1 40105U 14045A   26087.28045197  .00000041  00000+0  00000+0 0  9996
2 40105  55.2986  91.6863 0031377 119.9296 240.4172  2.00553048 84456
GSAT0201 (GALILEO 5)    
1 40128U 14050A   26085.95211835 -.00000004  00000+0  00000+0 0  9993
2 40128  48.9652 276.8011 1661372 176.1891 185.2559  1.85519926 76795
GSAT0202 (GALILEO 6)    
1 40129U 14050B   26085.12998542  .00000003  00000+0  00000+0 0  9998
2 40129  48.9839 275.9195 1662233 176.8927 184.2876  1.85520606 78947
IRNSS-1C                
1 40269U 14061A   26087.91781167 -.00000176  00000+0  00000+0 0  9999
2 40269   6.3118  90.4753 0020721 355.8522 153.4027  1.00274186 41884
NAVSTAR 72 (USA 258)    
1 40294U 14068A   26086.65813022 -.00000070  00000+0  00000+0 0  9993
2 40294  56.9354  34.0960 0063895  68.2397 292.4250  2.00571381 83575
COSMOS 2501 [GLONASS-K] 
1 40315U 14075A   26084.30325579  .00000001  00000+0  00000+0 0  9993
2 40315  63.6158 193.2737 0021182 207.3153 152.5805  2.13101287 88064
NAVSTAR 73 (USA 260)    
1 40534U 15013A   26086.29205244 -.00000029  00000+0  00000+0 0  9996
2 40534  53.1810 207.5638 0108792  39.9071 320.8617  2.00556171 80184
GSAT0203 (GALILEO 7)    
1 40544U 15017A   26086.67777373 -.00000097  00000+0  00000+0 0  9995
2 40544  56.8123 343.8202 0003036 318.8222  41.1887  1.70475469 67818
GSAT0204 (GALILEO 8)    
1 40545U 15017B   26086.34677115 -.00000097  00000+0  00000+0 0  9993
2 40545  56.8192 343.8470 0003314 290.4029  69.5952  1.70475336 30855
BEIDOU-3S IGSO-1S       
1 40549U 15019A   26082.29086919 -.00000163  00000+0  00000+0 0  9999
2 40549  49.3559 296.4949 0036261 190.1236 255.1180  1.00268843 40213
NAVSTAR 74 (USA 262)    
1 40730U 15033A   26086.95074998  .00000004  00000+0  00000+0 0  9991
2 40730  54.0472 270.4335 0114860  29.4650 331.1739  2.00560324 78361
BEIDOU-3S M2S           
1 40748U 15037A   26085.63312230 -.00000031  00000+0  00000+0 0  9993
2 40748  54.9430 304.8894 0008162 277.0076  82.9375  1.86231913 72582
BEIDOU-3S M1S           
1 40749U 15037B   26087.46129574 -.00000036  00000+0  00000+0 0  9999
2 40749  54.9387 304.8137 0004703  41.1359 318.9389  1.86254792 72627
GSAT0205 (GALILEO 9)    
1 40889U 15045A   26086.36399919 -.00000011  00000+0  00000+0 0  9996
2 40889  54.9729 223.9518 0004152 269.7313  90.1696  1.67410754 65591
